SENTINEL-3A             
1 41335U 16011A   26189.95682812  .00000049  00000+0  38312-4 0  9995
2 41335  98.6239 257.0268 0001402  92.1258 268.0083 14.26738595541163
SENTINEL-3B             
1 43437U 18039A   26189.78969595  .00000051  00000+0  38919-4 0  9995
2 43437  98.6239 257.0111 0001000 119.7937 240.3343 14.26740836427200
