{"fetched_at":"2026-07-09T08:01:27.804Z","source":"https://celestrak.org/NORAD/elements/gp.php?NAME=SENTINEL&FORMAT=JSON","constellation":"sentinel-3","records":[{"OBJECT_NAME":"SENTINEL-3A","OBJECT_ID":"2016-011A","EPOCH":"2026-07-08T22:57:49.949568","CLASSIFICATION_TYPE":"U","MEAN_MOTION":14.26738595,"ECCENTRICITY":0.00014024,"INCLINATION":98.6239,"RA_OF_ASC_NODE":257.0268,"ARG_OF_PERICENTER":92.1258,"MEAN_ANOMALY":268.0083,"EPHEMERIS_TYPE":0,"NORAD_CAT_ID":41335,"ELEMENT_SET_NO":999,"REV_AT_EPOCH":54116,"BSTAR":0.000038311854,"MEAN_MOTION_DOT":4.9e-7,"MEAN_MOTION_DDOT":0},{"OBJECT_NAME":"SENTINEL-3B","OBJECT_ID":"2018-039A","EPOCH":"2026-07-08T18:57:09.730080","CLASSIFICATION_TYPE":"U","MEAN_MOTION":14.26740836,"ECCENTRICITY":0.00010005,"INCLINATION":98.6239,"RA_OF_ASC_NODE":257.0111,"ARG_OF_PERICENTER":119.7937,"MEAN_ANOMALY":240.3343,"EPHEMERIS_TYPE":0,"NORAD_CAT_ID":43437,"ELEMENT_SET_NO":999,"REV_AT_EPOCH":42720,"BSTAR":0.000038919138,"MEAN_MOTION_DOT":5.1e-7,"MEAN_MOTION_DDOT":0}]}
